start=new Date('2022-10-05T00:00:00.000Z').valueOf();
sats=[{"CENTER_NAME":"EARTH","MEAN_ELEMENT_THEORY":"SGP4","APOAPSIS":"548.235","LAUNCH_DATE":"2020-01-29","ARG_OF_PERICENTER":"105.4646","EPHEMERIS_TYPE":"0","CLASSIFICATION_TYPE":"U","INCLINATION":"53.0541","PERIAPSIS":"546.195","RA_OF_ASC_NODE":"126.2469","OBJECT_NAME":"STARLINK-1174","RCS_SIZE":"LARGE","MEAN_MOTION_DOT":"0.00003010","TLE_LINE2":"2 45075  53.0541 126.2469 0001473 105.4646 254.6506 15.06399524148063","ECCENTRICITY":"0.00014730","REF_FRAME":"TEME","MEAN_ANOMALY":"254.6506","SEMIMAJOR_AXIS":"6925.350","PERIOD":"95.592","ELEMENT_SET_NO":"999","COUNTRY_CODE":"US","BSTAR":"0.00022087000000","NORAD_CAT_ID":"45075","EPOCH":"2022-10-04T20:54:57.310560","GP_ID":"214188140","MEAN_MOTION":"15.06399524","TLE_LINE1":"1 45075U 20006AH  22277.87149665  .00003010  00000-0  22087-3 0  9991","OBJECT_ID":"2020-006AH","FILE":"3591597","SITE":"AFETR","OBJECT_TYPE":"PAYLOAD","MEAN_MOTION_DDOT":"0.0000000000000","TIME_SYSTEM":"UTC","DECAY_DATE":null,"REV_AT_EPOCH":"14806"},{"DECAY_DATE":null,"TIME_SYSTEM":"UTC","MEAN_MOTION_DDOT":"0.0000000000000","REV_AT_EPOCH":"14806","SITE":"AFETR","OBJECT_TYPE":"PAYLOAD","OBJECT_ID":"2020-006AJ","TLE_LINE1":"1 45076U 20006AJ  22277.87792540 -.00000488  00000-0 -13874-4 0  9991","FILE":"3591597","MEAN_MOTION":"15.06390775","GP_ID":"214188390","EPOCH":"2022-10-04T21:04:12.754560","PERIOD":"95.593","BSTAR":"-0.00001387400000","COUNTRY_CODE":"US","NORAD_CAT_ID":"45076","ELEMENT_SET_NO":"999","MEAN_ANOMALY":"271.1364","SEMIMAJOR_AXIS":"6925.377","ECCENTRICITY":"0.00012080","REF_FRAME":"TEME","RCS_SIZE":"LARGE","OBJECT_NAME":"STARLINK-1180","MEAN_MOTION_DOT":"-0.00000488","RA_OF_ASC_NODE":"126.2158","TLE_LINE2":"2 45076  53.0543 126.2158 0001208  88.9763 271.1364 15.06390775148067","INCLINATION":"53.0543","PERIAPSIS":"546.405","CLASSIFICATION_TYPE":"U","EPHEMERIS_TYPE":"0","LAUNCH_DATE":"2020-01-29","ARG_OF_PERICENTER":"88.9763","CENTER_NAME":"EARTH","APOAPSIS":"548.078","MEAN_ELEMENT_THEORY":"SGP4"},{"ECCENTRICITY":"0.00013090","REF_FRAME":"TEME","RCS_SIZE":"LARGE","OBJECT_NAME":"STARLINK-1177","MEAN_MOTION_DOT":"0.00001308","RA_OF_ASC_NODE":"128.8198","TLE_LINE2":"2 45078  53.0544 128.8198 0001309 102.1399 257.9737 15.06396065147960","PERIAPSIS":"546.319","INCLINATION":"53.0544","CLASSIFICATION_TYPE":"U","EPHEMERIS_TYPE":"0","LAUNCH_DATE":"2020-01-29","ARG_OF_PERICENTER":"102.1399","CENTER_NAME":"EARTH","APOAPSIS":"548.132","MEAN_ELEMENT_THEORY":"SGP4","DECAY_DATE":null,"TIME_SYSTEM":"UTC","MEAN_MOTION_DDOT":"0.0000000000000","REV_AT_EPOCH":"14796","SITE":"AFETR","OBJECT_TYPE":"PAYLOAD","OBJECT_ID":"2020-006AL","TLE_LINE1":"1 45078U 20006AL  22277.30017188  .00001308  00000-0  10669-3 0  9997","FILE":"3591197","MEAN_MOTION":"15.06396065","GP_ID":"214156737","EPOCH":"2022-10-04T07:12:14.850432","PERIOD":"95.592","BSTAR":"0.00010669000000","COUNTRY_CODE":"US","ELEMENT_SET_NO":"999","NORAD_CAT_ID":"45078","MEAN_ANOMALY":"257.9737","SEMIMAJOR_AXIS":"6925.361"},{"LAUNCH_DATE":"2020-01-29","ARG_OF_PERICENTER":"112.8778","CENTER_NAME":"EARTH","APOAPSIS":"548.441","MEAN_ELEMENT_THEORY":"SGP4","ECCENTRICITY":"0.00017640","REF_FRAME":"TEME","MEAN_MOTION_DOT":"0.00000907","RCS_SIZE":"LARGE","OBJECT_NAME":"STARLINK-1149","RA_OF_ASC_NODE":"126.2286","TLE_LINE2":"2 45079  53.0545 126.2286 0001764 112.8778 247.2397 15.06398204148058","PERIAPSIS":"545.997","INCLINATION":"53.0545","CLASSIFICATION_TYPE":"U","EPHEMERIS_TYPE":"0","MEAN_MOTION":"15.06398204","EPOCH":"2022-10-04T20:58:53.941152","GP_ID":"214189391","PERIOD":"95.592","NORAD_CAT_ID":"45079","COUNTRY_CODE":"US","BSTAR":"0.00007981700000","ELEMENT_SET_NO":"999","SEMIMAJOR_AXIS":"6925.354","MEAN_ANOMALY":"247.2397","TIME_SYSTEM":"UTC","DECAY_DATE":null,"MEAN_MOTION_DDOT":"0.0000000000000","REV_AT_EPOCH":"14805","SITE":"AFETR","OBJECT_TYPE":"PAYLOAD","OBJECT_ID":"2020-006AM","TLE_LINE1":"1 45079U 20006AM  22277.87423543  .00000907  00000-0  79817-4 0  9991","FILE":"3591597"},{"MEAN_MOTION_DDOT":"0.0000000000000","DECAY_DATE":null,"TIME_SYSTEM":"UTC","REV_AT_EPOCH":"14806","SITE":"AFETR","OBJECT_TYPE":"PAYLOAD","TLE_LINE1":"1 45080U 20006AN  22277.88255485  .00000262  00000-0  36484-4 0  9999","OBJECT_ID":"2020-006AN","FILE":"3591597","MEAN_MOTION":"15.06397409","GP_ID":"214187640","EPOCH":"2022-10-04T21:10:52.739040","PERIOD":"95.592","ELEMENT_SET_NO":"999","COUNTRY_CODE":"US","BSTAR":"0.00003648400000","NORAD_CAT_ID":"45080","SEMIMAJOR_AXIS":"6925.356","MEAN_ANOMALY":"271.6721","ECCENTRICITY":"0.00014130","REF_FRAME":"TEME","RA_OF_ASC_NODE":"126.2002","MEAN_MOTION_DOT":"0.00000262","RCS_SIZE":"LARGE","OBJECT_NAME":"STARLINK-1153","TLE_LINE2":"2 45080  53.0534 126.2002 0001413  88.4430 271.6721 15.06397409148067","CLASSIFICATION_TYPE":"U","INCLINATION":"53.0534","PERIAPSIS":"546.243","EPHEMERIS_TYPE":"0","LAUNCH_DATE":"2020-01-29","ARG_OF_PERICENTER":"88.4430","CENTER_NAME":"EARTH","APOAPSIS":"548.200","MEAN_ELEMENT_THEORY":"SGP4"},{"EPHEMERIS_TYPE":"0","INCLINATION":"53.0533","PERIAPSIS":"546.284","CLASSIFICATION_TYPE":"U","TLE_LINE2":"2 45081  53.0533 126.2857 0001365  72.3599 287.7539 15.06394983148068","RCS_SIZE":"LARGE","MEAN_MOTION_DOT":"-0.00000169","OBJECT_NAME":"STARLINK-1151","RA_OF_ASC_NODE":"126.2857","REF_FRAME":"TEME","ECCENTRICITY":"0.00013650","MEAN_ELEMENT_THEORY":"SGP4","APOAPSIS":"548.174","CENTER_NAME":"EARTH","ARG_OF_PERICENTER":"72.3599","LAUNCH_DATE":"2020-01-29","FILE":"3591597","OBJECT_ID":"2020-006AP","TLE_LINE1":"1 45081U 20006AP  22277.85949244 -.00000169  00000-0  75188-5 0  9992","OBJECT_TYPE":"PAYLOAD","SITE":"AFETR","REV_AT_EPOCH":"14806","TIME_SYSTEM":"UTC","DECAY_DATE":null,"MEAN_MOTION_DDOT":"0.0000000000000","SEMIMAJOR_AXIS":"6925.364","MEAN_ANOMALY":"287.7539","NORAD_CAT_ID":"45081","COUNTRY_CODE":"US","BSTAR":"0.00000751880000","ELEMENT_SET_NO":"999","PERIOD":"95.592","GP_ID":"214187890","EPOCH":"2022-10-04T20:37:40.146816","MEAN_MOTION":"15.06394983"},{"EPHEMERIS_TYPE":"0","PERIAPSIS":"546.199","INCLINATION":"53.0533","CLASSIFICATION_TYPE":"U","TLE_LINE2":"2 45082  53.0533 128.7315 0001404  82.5963 277.5185 15.06413795147973","RCS_SIZE":"LARGE","MEAN_MOTION_DOT":"0.00003208","OBJECT_NAME":"STARLINK-1160","RA_OF_ASC_NODE":"128.7315","REF_FRAME":"TEME","ECCENTRICITY":"0.00014040","MEAN_ELEMENT_THEORY":"SGP4","APOAPSIS":"548.144","CENTER_NAME":"EARTH","ARG_OF_PERICENTER":"82.5963","LAUNCH_DATE":"2020-01-29","FILE":"3591197","OBJECT_ID":"2020-006AQ","TLE_LINE1":"1 45082U 20006AQ  22277.31765418  .00003208  00000-0  23405-3 0  9992","OBJECT_TYPE":"PAYLOAD","SITE":"AFETR","REV_AT_EPOCH":"14797","TIME_SYSTEM":"UTC","DECAY_DATE":null,"MEAN_MOTION_DDOT":"0.0000000000000","SEMIMAJOR_AXIS":"6925.306","MEAN_ANOMALY":"277.5185","COUNTRY_CODE":"US","ELEMENT_SET_NO":"999","BSTAR":"0.00023405000000","NORAD_CAT_ID":"45082","PERIOD":"95.591","GP_ID":"214156238","EPOCH":"2022-10-04T07:37:25.321152","MEAN_MOTION":"15.06413795"},{"ELEMENT_SET_NO":"999","COUNTRY_CODE":"US","BSTAR":"0.00002981700000","NORAD_CAT_ID":"45083","PERIOD":"95.592","SEMIMAJOR_AXIS":"6925.353","MEAN_ANOMALY":"254.7847","MEAN_MOTION":"15.06398610","EPOCH":"2022-10-04T19:32:40.630560","GP_ID":"214188892","FILE":"3591597","OBJECT_ID":"2020-006AR","TLE_LINE1":"1 45083U 20006AR  22277.81435915  .00000163  00000-0  29817-4 0  9995","REV_AT_EPOCH":"14777","DECAY_DATE":null,"TIME_SYSTEM":"UTC","MEAN_MOTION_DDOT":"0.0000000000000","OBJECT_TYPE":"PAYLOAD","SITE":"AFETR","APOAPSIS":"548.121","MEAN_ELEMENT_THEORY":"SGP4","CENTER_NAME":"EARTH","ARG_OF_PERICENTER":"105.3286","LAUNCH_DATE":"2020-01-29","PERIAPSIS":"546.315","INCLINATION":"53.0522","CLASSIFICATION_TYPE":"U","EPHEMERIS_TYPE":"0","REF_FRAME":"TEME","ECCENTRICITY":"0.00013040","TLE_LINE2":"2 45083  53.0522 146.5051 0001304 105.3286 254.7847 15.06398610147776","OBJECT_NAME":"STARLINK-1190","RCS_SIZE":"LARGE","MEAN_MOTION_DOT":"0.00000163","RA_OF_ASC_NODE":"146.5051"},{"REV_AT_EPOCH":"14834","DECAY_DATE":null,"TIME_SYSTEM":"UTC","MEAN_MOTION_DDOT":"0.0000000000000","OBJECT_TYPE":"PAYLOAD","SITE":"AFETR","FILE":"3591597","OBJECT_ID":"2020-006AS","TLE_LINE1":"1 45084U 20006AS  22277.86229323  .00013711  00000-0  93711-3 0  9991","MEAN_MOTION":"15.06417903","EPOCH":"2022-10-04T20:41:42.135072","GP_ID":"214188141","BSTAR":"0.00093711000000","COUNTRY_CODE":"US","ELEMENT_SET_NO":"999","NORAD_CAT_ID":"45084","PERIOD":"95.591","SEMIMAJOR_AXIS":"6925.294","MEAN_ANOMALY":"271.4415","REF_FRAME":"TEME","ECCENTRICITY":"0.00012730","TLE_LINE2":"2 45084  53.0540 106.3064 0001273  88.6720 271.4415 15.06417903148344","RCS_SIZE":"LARGE","MEAN_MOTION_DOT":"0.00013711","OBJECT_NAME":"STARLINK-1173","RA_OF_ASC_NODE":"106.3064","INCLINATION":"53.0540","PERIAPSIS":"546.277","CLASSIFICATION_TYPE":"U","EPHEMERIS_TYPE":"0","ARG_OF_PERICENTER":"88.6720","LAUNCH_DATE":"2020-01-29","APOAPSIS":"548.040","MEAN_ELEMENT_THEORY":"SGP4","CENTER_NAME":"EARTH"},{"REF_FRAME":"TEME","ECCENTRICITY":"0.00013370","TLE_LINE2":"2 45085  53.0549 106.3109 0001337 101.4185 258.6954 15.06399847148345","RCS_SIZE":"LARGE","OBJECT_NAME":"STARLINK-1179","MEAN_MOTION_DOT":"0.00000179","RA_OF_ASC_NODE":"106.3109","INCLINATION":"53.0549","PERIAPSIS":"546.288","CLASSIFICATION_TYPE":"U","EPHEMERIS_TYPE":"0","ARG_OF_PERICENTER":"101.4185","LAUNCH_DATE":"2020-01-29","MEAN_ELEMENT_THEORY":"SGP4","APOAPSIS":"548.140","CENTER_NAME":"EARTH","REV_AT_EPOCH":"14834","DECAY_DATE":null,"TIME_SYSTEM":"UTC","MEAN_MOTION_DDOT":"0.0000000000000","OBJECT_TYPE":"PAYLOAD","SITE":"AFETR","FILE":"3591597","OBJECT_ID":"2020-006AT","TLE_LINE1":"1 45085U 20006AT  22277.85859731  .00000179  00000-0  30907-4 0  9996","MEAN_MOTION":"15.06399847","EPOCH":"2022-10-04T20:36:22.807584","GP_ID":"214188391","BSTAR":"0.00003090700000","COUNTRY_CODE":"US","ELEMENT_SET_NO":"999","NORAD_CAT_ID":"45085","PERIOD":"95.592","SEMIMAJOR_AXIS":"6925.349","MEAN_ANOMALY":"258.6954"}];
